[{"OBJECT_NAME":"ASRTU-1 (AO-123)","OBJECT_ID":"2024-199AY","EPOCH":"2026-03-09T22:36:42.151392","MEAN_MOTION":15.34070057,"ECCENTRICITY":0.0012786,"INCLINATION":97.3152,"RA_OF_ASC_NODE":298.5256,"ARG_OF_PERICENTER":309.3392,"MEAN_ANOMALY":50.6717,"EPHEMERIS_TYPE":0,"CLASSIFICATION_TYPE":"U","NORAD_CAT_ID":61781,"ELEMENT_SET_NO":999,"REV_AT_EPOCH":11870,"BSTAR":0.00032267684,"MEAN_MOTION_DOT":0.00010589,"MEAN_MOTION_DDOT":0},{"OBJECT_NAME":"STARLINK-34265","OBJECT_ID":"2025-113Y","EPOCH":"2026-03-09T07:09:01.362816","MEAN_MOTION":15.30167557,"ECCENTRICITY":0.00013724,"INCLINATION":53.1593,"RA_OF_ASC_NODE":93.0568,"ARG_OF_PERICENTER":91.8934,"MEAN_ANOMALY":268.2224,"EPHEMERIS_TYPE":0,"CLASSIFICATION_TYPE":"U","NORAD_CAT_ID":64192,"ELEMENT_SET_NO":999,"REV_AT_EPOCH":4496,"BSTAR":0.00043840183,"MEAN_MOTION_DOT":0.00012634,"MEAN_MOTION_DDOT":0}]
